DUBAISAT-1              
1 35682U 09041B   26162.39116850  .00000627  00000+0  10044-3 0  9994
2 35682  98.0044 295.7128 0011741  90.1964 270.0590 14.75114193904246
OCEANSAT-2              
1 35931U 09051A   26162.69514199  .00000012  00000+0  33772-4 0  9995
2 35931  98.2324 150.0944 0014812 252.7580 107.1966 13.99664720878560
WORLDVIEW-2 (WV-2)      
1 35946U 09055A   26162.66649685  .00000081  00000+0  41340-4 0  9997
2 35946  98.4736 236.1920 0003406 227.5930 132.4970 14.37897773874854
SMOS                    
1 36036U 09059A   26162.49088354  .00000222  00000+0  84820-4 0  9990
2 36036  98.4425 349.9093 0001319  88.8797 271.2542 14.39769543872630
YAOGAN-7                
1 36110U 09069A   26162.67282284  .00000429  00000+0  66393-4 0  9996
2 36110  98.0080  48.5737 0025845  58.7619 301.6119 14.78004346888813
TANDEM-X                
1 36605U 10030A   26160.28753286  .00000776  00000+0  40127-4 0  9997
2 36605  97.4454 168.1075 0001902  90.0350 270.1102 15.19149708885449
CARTOSAT-2B             
1 36795U 10035A   26162.72307520  .00000927  00000+0  13351-3 0  9995
2 36795  97.9959 213.3078 0010713 202.0949 157.9801 14.78656094859049
YAOGAN-10               
1 36834U 10038A   26162.75954331  .00001471  00000+0  17735-3 0  9998
2 36834  97.8982 186.2070 0001640  89.5233 330.1964 14.85331534856400
COSMO-SKYMED 4          
1 37216U 10060A   26162.70534731 -.00000011  00000+0  51901-5 0  9996
2 37216  97.8890 346.3850 0001408  79.4717 280.6655 14.82147856843754
RESOURCESAT-2           
1 37387U 11015A   26162.66954486  .00000048  00000+0  42049-4 0  9995
2 37387  98.7644 230.1493 0010126 273.2831  86.7187 14.21605247785397
HAIYANG-2A              
1 37781U 11043A   26162.72431132 -.00000218  00000+0 -18401-3 0  9994
2 37781  99.3396 165.5208 0006186 101.7678 258.4165 13.74457611745900
RASAT                   
1 37791U 11044D   26162.73629134  .00000799  00000+0  14697-3 0  9993
2 37791  98.0569 254.2163 0019781 206.5007 273.5656 14.68162845792383
SRMSAT                  
1 37841U 11058D   26162.51581192  .00000355  00000+0  48954-4 0  9993
2 37841  19.9715  93.7945 0011909 141.4141  27.1536 14.11574372757019
PLEIADES 1A             
1 38012U 11076F   26162.71654544  .00000482  00000+0  11354-3 0  9992
2 38012  98.1975 237.8928 0001566  96.9939  19.2469 14.58568485771197
ZIYUAN 1-02C (ZY 1-02C) 
1 38038U 11079A   26162.72818375  .00000603  00000+0  21252-3 0  9991
2 38038  98.4073 230.1507 0005837 335.1828 136.2451 14.38211453758426
ARIRANG-3 (KOMPSAT-3)   
1 38338U 12025B   26162.69511556  .00000362  00000+0  81032-4 0  9998
2 38338  98.1175 120.2499 0006463 123.2999 236.8822 14.62201378750545
EXACTVIEW-1 (ADS-1B)    
1 38709U 12039C   26162.55333182  .00000091  00000+0  58582-4 0  9990
2 38709  98.9771 279.8164 0010859 182.3733 177.7396 14.24982965721906
SPOT 6                  
1 38755U 12047A   26162.70972249  .00000460  00000+0  10878-3 0  9995
2 38755  98.2120 230.0828 0001446  91.1345 269.0020 14.58560666732258
PLEIADES 1B             
1 39019U 12068A   26162.72863014  .00000457  00000+0  10817-3 0  9992
2 39019  98.1945 237.8555 0001622  93.6245 266.5139 14.58558164720058
GOKTURK 2               
1 39030U 12073A   26162.72355678  .00000679  00000+0  10665-3 0  9990
2 39030  97.6829   0.4292 0001796  58.3321 301.8064 14.75538329723708
LANDSAT 8               
1 39084U 13008A   26162.66844264  .00000275  00000+0  71255-4 0  9990
2 39084  98.2302 232.8690 0001374  93.1465 266.9890 14.57090847697099
SARAL                   
1 39086U 13009A   26162.66394751  .00000084  00000+0  46749-4 0  9992
2 39086  98.5557 349.3012 0000999 339.3668  20.7476 14.32854582694810
GAOFEN-1                
1 39150U 13018A   26162.70939000  .00000570  00000+0  88902-4 0  9998
2 39150  97.9095 234.8885 0015747 285.7511  74.1962 14.76532352707438
VNREDSAT 1              
1 39160U 13021B   26162.69274749  .00000505  00000+0  10308-3 0  9995
2 39160  97.9086 216.3199 0001662  89.0626 271.0768 14.64851396699481
ARIRANG-5 (KOMPSAT-5)   
1 39227U 13042A   26162.71231168  .00001486  00000+0  11054-3 0  9991
2 39227  97.6217 349.4905 0004830 135.0499 225.1119 15.04477821703030
SKYSAT-A                
1 39418U 13066C   26162.63565303  .00002602  00000+0  15053-3 0  9995
2 39418  97.3821 212.2094 0020589 337.7008  22.3326 15.12945014687640
DUBAISAT-2              
1 39419U 13066D   26162.70375095  .00003611  00000+0  22486-3 0  9990
2 39419  97.4564 152.9914 0012768  57.4455 302.8006 15.10142483685566
GPM-CORE                
1 39574U 14009C   26162.70566573  .00010915  00000+0  23906-3 0  9996
2 39574  64.9722 326.4838 0012116 249.4720 110.5120 15.44450249696967
SENTINEL-1A             
1 39634U 14016A   26161.51035463  .00000288  00000+0  70740-4 0  9999
2 39634  98.1783 169.1406 0001436  80.9924 279.1438 14.59199013649045
KAZEOSAT 1              
1 39731U 14024A   26162.67907372  .00000321  00000+0  11075-3 0  9994
2 39731  98.3205 235.2633 0001448  75.2743 284.8608 14.42078657637760
ALOS-2                  
1 39766U 14029A   26162.72854390  .00001205  00000+0  16818-3 0  9996
2 39766  97.9210 259.9704 0001638  89.5715 270.5684 14.79472518650775
