OBJECT_NAME,OBJECT_ID,EPOCH,MEAN_MOTION,ECCENTRICITY,INCLINATION,RA_OF_ASC_NODE,ARG_OF_PERICENTER,MEAN_ANOMALY,EPHEMERIS_TYPE,CLASSIFICATION_TYPE,NORAD_CAT_ID,ELEMENT_SET_NO,REV_AT_EPOCH,BSTAR,MEAN_MOTION_DOT,MEAN_MOTION_DDOT
DUBAISAT-1,2009-041B,2026-06-11T09:23:16.958400,14.75114193,.0011741,98.0044,295.7128,90.1964,270.0590,0,U,35682,999,90424,.10044E-3,.627E-5,0
OCEANSAT-2,2009-051A,2026-06-11T16:41:00.267936,13.99664720,.0014812,98.2324,150.0944,252.7580,107.1966,0,U,35931,999,87856,.33772E-4,.12E-6,0
WORLDVIEW-2 (WV-2),2009-055A,2026-06-11T15:59:45.327840,14.37897773,.0003406,98.4736,236.1920,227.5930,132.4970,0,U,35946,999,87485,.4134E-4,.81E-6,0
SMOS,2009-059A,2026-06-11T11:46:52.337856,14.39769543,.0001319,98.4425,349.9093,88.8797,271.2542,0,U,36036,999,87263,.8482E-4,.222E-5,0
YAOGAN-7,2009-069A,2026-06-11T16:08:51.893376,14.78004346,.0025845,98.0080,48.5737,58.7619,301.6119,0,U,36110,999,88881,.66393E-4,.429E-5,0
TANDEM-X,2010-030A,2026-06-09T06:54:02.839104,15.19149708,.00019024,97.4454,168.1075,90.0350,270.1102,0,U,36605,999,88544,.40127109E-4,.776E-5,0
CARTOSAT-2B,2010-035A,2026-06-11T17:21:13.697280,14.78656094,.0010713,97.9959,213.3078,202.0949,157.9801,0,U,36795,999,85904,.13351E-3,.927E-5,0
YAOGAN-10,2010-038A,2026-06-11T18:13:44.541984,14.85331534,.000164,97.8982,186.2070,89.5233,330.1964,0,U,36834,999,85640,.17735E-3,.1471E-4,0
COSMO-SKYMED 4,2010-060A,2026-06-11T16:55:42.007584,14.82147856,.0001408,97.8890,346.3850,79.4717,280.6655,0,U,37216,999,84375,.51901E-5,-.11E-6,0
RESOURCESAT-2,2011-015A,2026-06-11T16:04:08.675904,14.21605247,.0010126,98.7644,230.1493,273.2831,86.7187,0,U,37387,999,78539,.42049E-4,.48E-6,0
HAIYANG-2A,2011-043A,2026-06-11T17:23:00.498048,13.74457611,.0006186,99.3396,165.5208,101.7678,258.4165,0,U,37781,999,74590,-.18401E-3,-.218E-5,0
RASAT,2011-044D,2026-06-11T17:40:15.571776,14.68162845,.0019781,98.0569,254.2163,206.5007,273.5656,0,U,37791,999,79238,.14697E-3,.799E-5,0
SRMSAT,2011-058D,2026-06-11T12:22:46.149888,14.11574372,.0011909,19.9715,93.7945,141.4141,27.1536,0,U,37841,999,75701,.48954E-4,.355E-5,0
PLEIADES 1A,2011-076F,2026-06-11T17:11:49.526016,14.58568485,.0001566,98.1975,237.8928,96.9939,19.2469,0,U,38012,999,77119,.11354E-3,.482E-5,0
ZIYUAN 1-02C (ZY 1-02C),2011-079A,2026-06-11T17:28:35.076000,14.38211453,.0005837,98.4073,230.1507,335.1828,136.2451,0,U,38038,999,75842,.21252E-3,.603E-5,0
ARIRANG-3 (KOMPSAT-3),2012-025B,2026-06-11T16:40:57.984384,14.62201378,.0006463,98.1175,120.2499,123.2999,236.8822,0,U,38338,999,75054,.81032E-4,.362E-5,0
EXACTVIEW-1 (ADS-1B),2012-039C,2026-06-11T13:16:47.869248,14.24982965,.0010859,98.9771,279.8164,182.3733,177.7396,0,U,38709,999,72190,.58582E-4,.91E-6,0
SPOT 6,2012-047A,2026-06-11T17:02:00.023136,14.58560666,.0001446,98.2120,230.0828,91.1345,269.0020,0,U,38755,999,73225,.10878E-3,.46E-5,0
PLEIADES 1B,2012-068A,2026-06-11T17:29:13.644096,14.58558164,.0001622,98.1945,237.8555,93.6245,266.5139,0,U,39019,999,72005,.10817E-3,.457E-5,0
GOKTURK 2,2012-073A,2026-06-11T17:21:55.305792,14.75538329,.0001796,97.6829,0.4292,58.3321,301.8064,0,U,39030,999,72370,.10665E-3,.679E-5,0
LANDSAT 8,2013-008A,2026-06-11T16:02:33.444096,14.57090847,.0001374,98.2302,232.8690,93.1465,266.9890,0,U,39084,999,69709,.71255E-4,.275E-5,0
SARAL,2013-009A,2026-06-11T15:56:05.064864,14.32854582,.0000999,98.5557,349.3012,339.3668,20.7476,0,U,39086,999,69481,.46749E-4,.84E-6,0
GAOFEN-1,2013-018A,2026-06-11T17:01:31.296000,14.76532352,.0015747,97.9095,234.8885,285.7511,74.1962,0,U,39150,999,70743,.88902E-4,.57E-5,0
VNREDSAT 1,2013-021B,2026-06-11T16:37:33.383136,14.64851396,.0001662,97.9086,216.3199,89.0626,271.0768,0,U,39160,999,69948,.10308E-3,.505E-5,0
ARIRANG-5 (KOMPSAT-5),2013-042A,2026-06-11T17:05:43.729152,15.04477821,.000483,97.6217,349.4905,135.0499,225.1119,0,U,39227,999,70303,.11054E-3,.1486E-4,0
SKYSAT-A,2013-066C,2026-06-11T15:15:20.421792,15.12945014,.0020589,97.3821,212.2094,337.7008,22.3326,0,U,39418,999,68764,.15053E-3,.2602E-4,0
DUBAISAT-2,2013-066D,2026-06-11T16:53:24.082080,15.10142483,.0012768,97.4564,152.9914,57.4455,302.8006,0,U,39419,999,68556,.22486E-3,.3611E-4,0
GPM-CORE,2014-009C,2026-06-11T16:56:09.519072,15.44450249,.0012116,64.9722,326.4838,249.4720,110.5120,0,U,39574,999,69696,.23906E-3,.10915E-3,0
SENTINEL-1A,2014-016A,2026-06-10T12:14:54.640032,14.59199013,.00014362,98.1783,169.1406,80.9924,279.1438,0,U,39634,999,64904,.70739944E-4,.288E-5,0
KAZEOSAT 1,2014-024A,2026-06-11T16:17:51.969408,14.42078657,.0001448,98.3205,235.2633,75.2743,284.8608,0,U,39731,999,63776,.11075E-3,.321E-5,0
ALOS-2,2014-029A,2026-06-11T17:29:06.192960,14.79472518,.0001638,97.9210,259.9704,89.5715,270.5684,0,U,39766,999,65077,.16818E-3,.1205E-4,0
